ARIANE 40 R/B           
1 21610U 91050F   23258.20285298  .00000582  00000+0  19242-3 0  9996
2 21610  98.3293 322.5875 0002091 309.0448  51.0555 14.41481200688332
INTERCOSMOS 25          
1 21819U 91086A   23258.13561854  .00001449  00000+0  29443-3 0  9990
2 21819  82.6038 136.2088 1505130 264.5483  78.2714 12.07463169387067
SL-8 R/B                
1 21938U 92020B   23258.59274302  .00000124  00000+0  11376-3 0  9995
2 21938  82.9269 106.6730 0028224 308.5091 104.8062 13.75359769576574
COSMOS 2219             
1 22219U 92076A   23258.06167131  .00000383  00000+0  22677-3 0  9995
2 22219  71.0596 112.9064 0017199 150.6231 209.5862 14.13780987590222
SL-16 R/B               
1 22220U 92076B   23258.55592795 -.00000070  00000+0 -11309-4 0  9995
2 22220  70.9994 296.7274 0011621  26.6916 125.1997 14.16581144593495
COSMOS 2221             
1 22236U 92080A   23258.55817181  .00002283  00000+0  23314-3 0  9990
2 22236  82.5047  62.7829 0015642 350.3557   9.7359 14.90127647645563
SL-16 R/B               
1 22285U 92093B   23258.59982185  .00000092  00000+0  71798-4 0  9995
2 22285  71.0208 106.0188 0006601 257.0370 103.0016 14.15184526584959
COSMOS 2228             
1 22286U 92094A   23258.44340307  .00003086  00000+0  31216-3 0  9991
2 22286  82.5228  20.4984 0021670 100.2618 260.1046 14.90521051640759
SL-16 R/B               
1 22566U 93016B   23258.55703328  .00000339  00000+0  19945-3 0  9998
2 22566  71.0091 317.9781 0012564 264.0284  95.9407 14.15080938573975
COSMOS 2242             
1 22626U 93024A   23258.55782594  .00002757  00000+0  28067-3 0  9997
2 22626  82.5205  49.0577 0019717 100.8077 259.5362 14.90256023645146
SL-16 R/B               
1 22803U 93059B   23258.06115004 -.00000138  00000+0 -44945-4 0  9991
2 22803  70.9896 122.6337 0016169 159.0856 201.0932 14.16951387551099
ARIANE 40 R/B           
1 22830U 93061H   23258.20989671  .00000402  00000+0  16651-3 0  9993
2 22830  98.6088 323.6367 0011947  83.2002 277.0541 14.31844702564334
SL-16 R/B               
1 23088U 94023B   23258.16564895  .00000387  00000+0  22543-3 0  9999
2 23088  71.0007 174.3470 0005198 248.0085 112.0486 14.14784564518138
SL-16 R/B               
1 23343U 94074B   23258.57104998  .00000707  00000+0  10590-3 0  9993
2 23343  97.8311 305.0591 0005407 288.5911 200.4561 14.77583193553356
SL-16 R/B               
1 23405U 94077B   23258.56947545 -.00000111  00000+0 -32256-4 0  9992
2 23405  70.9819  98.4504 0000396 161.5797 198.5340 14.15330292488015
