[{"OBJECT_NAME":"ARIANE 40 R\/B","OBJECT_ID":"1991-050F","EPOCH":"2023-09-15T04:52:06.497472","MEAN_MOTION":14.414812,"ECCENTRICITY":0.0002091,"INCLINATION":98.3293,"RA_OF_ASC_NODE":322.5875,"ARG_OF_PERICENTER":309.0448,"MEAN_ANOMALY":51.0555,"EPHEMERIS_TYPE":0,"CLASSIFICATION_TYPE":"U","NORAD_CAT_ID":21610,"ELEMENT_SET_NO":999,"REV_AT_EPOCH":68833,"BSTAR":0.00019242,"MEAN_MOTION_DOT":5.82e-6,"MEAN_MOTION_DDOT":0},{"OBJECT_NAME":"INTERCOSMOS 25","OBJECT_ID":"1991-086A","EPOCH":"2023-09-15T03:15:17.441856","MEAN_MOTION":12.07463169,"ECCENTRICITY":0.150513,"INCLINATION":82.6038,"RA_OF_ASC_NODE":136.2088,"ARG_OF_PERICENTER":264.5483,"MEAN_ANOMALY":78.2714,"EPHEMERIS_TYPE":0,"CLASSIFICATION_TYPE":"U","NORAD_CAT_ID":21819,"ELEMENT_SET_NO":999,"REV_AT_EPOCH":38706,"BSTAR":0.00029443,"MEAN_MOTION_DOT":1.449e-5,"MEAN_MOTION_DDOT":0},{"OBJECT_NAME":"SL-8 R\/B","OBJECT_ID":"1992-020B","EPOCH":"2023-09-15T14:13:32.996928","MEAN_MOTION":13.75359769,"ECCENTRICITY":0.0028224,"INCLINATION":82.9269,"RA_OF_ASC_NODE":106.673,"ARG_OF_PERICENTER":308.5091,"MEAN_ANOMALY":104.8062,"EPHEMERIS_TYPE":0,"CLASSIFICATION_TYPE":"U","NORAD_CAT_ID":21938,"ELEMENT_SET_NO":999,"REV_AT_EPOCH":57657,"BSTAR":0.00011376,"MEAN_MOTION_DOT":1.24e-6,"MEAN_MOTION_DDOT":0},{"OBJECT_NAME":"COSMOS 2219","OBJECT_ID":"1992-076A","EPOCH":"2023-09-15T01:28:48.401184","MEAN_MOTION":14.13780987,"ECCENTRICITY":0.0017199,"INCLINATION":71.0596,"RA_OF_ASC_NODE":112.9064,"ARG_OF_PERICENTER":150.6231,"MEAN_ANOMALY":209.5862,"EPHEMERIS_TYPE":0,"CLASSIFICATION_TYPE":"U","NORAD_CAT_ID":22219,"ELEMENT_SET_NO":999,"REV_AT_EPOCH":59022,"BSTAR":0.00022677,"MEAN_MOTION_DOT":3.83e-6,"MEAN_MOTION_DDOT":0},{"OBJECT_NAME":"SL-16 R\/B","OBJECT_ID":"1992-076B","EPOCH":"2023-09-15T13:20:32.174880","MEAN_MOTION":14.16581144,"ECCENTRICITY":0.0011621,"INCLINATION":70.9994,"RA_OF_ASC_NODE":296.7274,"ARG_OF_PERICENTER":26.6916,"MEAN_ANOMALY":125.1997,"EPHEMERIS_TYPE":0,"CLASSIFICATION_TYPE":"U","NORAD_CAT_ID":22220,"ELEMENT_SET_NO":999,"REV_AT_EPOCH":59382,"BSTAR":-1.1309e-5,"MEAN_MOTION_DOT":-7.0e-7,"MEAN_MOTION_DDOT":0},{"OBJECT_NAME":"COSMOS 2221","OBJECT_ID":"1992-080A","EPOCH":"2023-09-15T13:23:46.044384","MEAN_MOTION":14.90127647,"ECCENTRICITY":0.0015642,"INCLINATION":82.5047,"RA_OF_ASC_NODE":62.7829,"ARG_OF_PERICENTER":350.3557,"MEAN_ANOMALY":9.7359,"EPHEMERIS_TYPE":0,"CLASSIFICATION_TYPE":"U","NORAD_CAT_ID":22236,"ELEMENT_SET_NO":999,"REV_AT_EPOCH":64556,"BSTAR":0.00023314,"MEAN_MOTION_DOT":2.283e-5,"MEAN_MOTION_DDOT":0},{"OBJECT_NAME":"SL-16 R\/B","OBJECT_ID":"1992-093B","EPOCH":"2023-09-15T14:23:44.607840","MEAN_MOTION":14.15184526,"ECCENTRICITY":0.0006601,"INCLINATION":71.0208,"RA_OF_ASC_NODE":106.0188,"ARG_OF_PERICENTER":257.037,"MEAN_ANOMALY":103.0016,"EPHEMERIS_TYPE":0,"CLASSIFICATION_TYPE":"U","NORAD_CAT_ID":22285,"ELEMENT_SET_NO":999,"REV_AT_EPOCH":58495,"BSTAR":7.1798e-5,"MEAN_MOTION_DOT":9.2e-7,"MEAN_MOTION_DDOT":0},{"OBJECT_NAME":"COSMOS 2228","OBJECT_ID":"1992-094A","EPOCH":"2023-09-15T10:38:30.025248","MEAN_MOTION":14.90521051,"ECCENTRICITY":0.002167,"INCLINATION":82.5228,"RA_OF_ASC_NODE":20.4984,"ARG_OF_PERICENTER":100.2618,"MEAN_ANOMALY":260.1046,"EPHEMERIS_TYPE":0,"CLASSIFICATION_TYPE":"U","NORAD_CAT_ID":22286,"ELEMENT_SET_NO":999,"REV_AT_EPOCH":64075,"BSTAR":0.00031216,"MEAN_MOTION_DOT":3.086e-5,"MEAN_MOTION_DDOT":0},{"OBJECT_NAME":"SL-16 R\/B","OBJECT_ID":"1993-016B","EPOCH":"2023-09-15T13:22:07.675392","MEAN_MOTION":14.15080938,"ECCENTRICITY":0.0012564,"INCLINATION":71.0091,"RA_OF_ASC_NODE":317.9781,"ARG_OF_PERICENTER":264.0284,"MEAN_ANOMALY":95.9407,"EPHEMERIS_TYPE":0,"CLASSIFICATION_TYPE":"U","NORAD_CAT_ID":22566,"ELEMENT_SET_NO":999,"REV_AT_EPOCH":57397,"BSTAR":0.00019945,"MEAN_MOTION_DOT":3.39e-6,"MEAN_MOTION_DDOT":0},{"OBJECT_NAME":"COSMOS 2242","OBJECT_ID":"1993-024A","EPOCH":"2023-09-15T13:23:16.161216","MEAN_MOTION":14.90256023,"ECCENTRICITY":0.0019717,"INCLINATION":82.5205,"RA_OF_ASC_NODE":49.0577,"ARG_OF_PERICENTER":100.8077,"MEAN_ANOMALY":259.5362,"EPHEMERIS_TYPE":0,"CLASSIFICATION_TYPE":"U","NORAD_CAT_ID":22626,"ELEMENT_SET_NO":999,"REV_AT_EPOCH":64514,"BSTAR":0.00028067,"MEAN_MOTION_DOT":2.757e-5,"MEAN_MOTION_DDOT":0},{"OBJECT_NAME":"SL-16 R\/B","OBJECT_ID":"1993-059B","EPOCH":"2023-09-15T01:28:03.363456","MEAN_MOTION":14.16951387,"ECCENTRICITY":0.0016169,"INCLINATION":70.9896,"RA_OF_ASC_NODE":122.6337,"ARG_OF_PERICENTER":159.0856,"MEAN_ANOMALY":201.0932,"EPHEMERIS_TYPE":0,"CLASSIFICATION_TYPE":"U","NORAD_CAT_ID":22803,"ELEMENT_SET_NO":999,"REV_AT_EPOCH":55109,"BSTAR":-4.4945e-5,"MEAN_MOTION_DOT":-1.38e-6,"MEAN_MOTION_DDOT":0},{"OBJECT_NAME":"ARIANE 40 R\/B","OBJECT_ID":"1993-061H","EPOCH":"2023-09-15T05:02:15.075744","MEAN_MOTION":14.31844702,"ECCENTRICITY":0.0011947,"INCLINATION":98.6088,"RA_OF_ASC_NODE":323.6367,"ARG_OF_PERICENTER":83.2002,"MEAN_ANOMALY":277.0541,"EPHEMERIS_TYPE":0,"CLASSIFICATION_TYPE":"U","NORAD_CAT_ID":22830,"ELEMENT_SET_NO":999,"REV_AT_EPOCH":56433,"BSTAR":0.00016651,"MEAN_MOTION_DOT":4.02e-6,"MEAN_MOTION_DDOT":0},{"OBJECT_NAME":"SL-16 R\/B","OBJECT_ID":"1994-023B","EPOCH":"2023-09-15T03:58:32.069280","MEAN_MOTION":14.14784564,"ECCENTRICITY":0.0005198,"INCLINATION":71.0007,"RA_OF_ASC_NODE":174.347,"ARG_OF_PERICENTER":248.0085,"MEAN_ANOMALY":112.0486,"EPHEMERIS_TYPE":0,"CLASSIFICATION_TYPE":"U","NORAD_CAT_ID":23088,"ELEMENT_SET_NO":999,"REV_AT_EPOCH":51813,"BSTAR":0.00022543,"MEAN_MOTION_DOT":3.87e-6,"MEAN_MOTION_DDOT":0},{"OBJECT_NAME":"SL-16 R\/B","OBJECT_ID":"1994-074B","EPOCH":"2023-09-15T13:42:18.718272","MEAN_MOTION":14.77583193,"ECCENTRICITY":0.0005407,"INCLINATION":97.8311,"RA_OF_ASC_NODE":305.0591,"ARG_OF_PERICENTER":288.5911,"MEAN_ANOMALY":200.4561,"EPHEMERIS_TYPE":0,"CLASSIFICATION_TYPE":"U","NORAD_CAT_ID":23343,"ELEMENT_SET_NO":999,"REV_AT_EPOCH":55335,"BSTAR":0.0001059,"MEAN_MOTION_DOT":7.07e-6,"MEAN_MOTION_DDOT":0},{"OBJECT_NAME":"SL-16 R\/B","OBJECT_ID":"1994-077B","EPOCH":"2023-09-15T13:40:02.678880","MEAN_MOTION":14.15330292,"ECCENTRICITY":3.96e-5,"INCLINATION":70.9819,"RA_OF_ASC_NODE":98.4504,"ARG_OF_PERICENTER":161.5797,"MEAN_ANOMALY":198.534,"EPHEMERIS_TYPE":0,"CLASSIFICATION_TYPE":"U","NORAD_CAT_ID":23405,"ELEMENT_SET_NO":999,"REV_AT_EPOCH":48801,"BSTAR":-3.2256e-5,"MEAN_MOTION_DOT":-1.11e-6,"MEAN_MOTION_DDOT":0}]
